{
  "type": "FeatureCollection",
  "features": [
    {
      "type": "Feature",
      "properties": {
        "norad_id": 33886,
        "name": "IRIDIUM 33 DEB",
        "group": "iridium-33-debris",
        "lat": -59.518723376510415,
        "lon": 59.07546829200429,
        "alt_km": 776.5165148285505,
        "timestamp": "2025-12-17T10:52:54.737072+00:00",
        "meta_object_name": "IRIDIUM 33 DEB",
        "meta_object_id": "1997-051BF",
        "meta_epoch": "2025-12-17T00:15:50.309280",
        "meta_mean_motion": 14.36057137,
        "meta_eccentricity": 0.00126285,
        "meta_inclination": 86.3828,
        "meta_ra_of_asc_node": 65.4311,
        "meta_arg_of_pericenter": 226.2038,
        "meta_mean_anomaly": 308.2695,
        "meta_ephemeris_type": 0,
        "meta_classification_type": "U",
        "meta_norad_cat_id": 33886,
        "meta_element_set_no": 999,
        "meta_rev_at_epoch": 88113,
        "meta_bstar": 0.00017106964,
        "meta_mean_motion_dot": 5.17e-06,
        "meta_mean_motion_ddot": 0,
        "tle_line1": "1 33886U 97051BF  25351.01099895  .00000517  00000+0  17107-3 0  9998",
        "tle_line2": "2 33886  86.3828  65.4311 0012628 226.2038 308.2695 14.36057137881138"
      },
      "geometry": {
        "type": "Point",
        "coordinates": [
          59.07546829200429,
          -59.518723376510415
        ]
      }
    },
    {
      "type": "Feature",
      "properties": {
        "norad_id": 33887,
        "name": "IRIDIUM 33 DEB",
        "group": "iridium-33-debris",
        "lat": -75.86134938205485,
        "lon": -163.7714870623469,
        "alt_km": 772.8339345022841,
        "timestamp": "2025-12-17T10:52:54.737083+00:00",
        "meta_object_name": "IRIDIUM 33 DEB",
        "meta_object_id": "1997-051BG",
        "meta_epoch": "2025-12-16T12:33:11.793888",
        "meta_mean_motion": 14.37224432,
        "meta_eccentricity": 0.00048024,
        "meta_inclination": 86.3043,
        "meta_ra_of_asc_node": 1.7618,
        "meta_arg_of_pericenter": 210.6585,
        "meta_mean_anomaly": 274.979,
        "meta_ephemeris_type": 0,
        "meta_classification_type": "U",
        "meta_norad_cat_id": 33887,
        "meta_element_set_no": 999,
        "meta_rev_at_epoch": 88219,
        "meta_bstar": 0.000138268,
        "meta_mean_motion_dot": 4.31e-06,
        "meta_mean_motion_ddot": 0,
        "tle_line1": "1 33887U 97051BG  25350.52305317  .00000431  00000+0  13827-3 0  9993",
        "tle_line2": "2 33887  86.3043   1.7618 0004802 210.6585 274.9790 14.37224432882197"
      },
      "geometry": {
        "type": "Point",
        "coordinates": [
          -163.7714870623469,
          -75.86134938205485
        ]
      }
    },
    {
      "type": "Feature",
      "properties": {
        "norad_id": 33953,
        "name": "IRIDIUM 33 DEB",
        "group": "iridium-33-debris",
        "lat": 58.58957700792959,
        "lon": 57.67655865238291,
        "alt_km": 691.328014443362,
        "timestamp": "2025-12-17T10:52:54.737094+00:00",
        "meta_object_name": "IRIDIUM 33 DEB",
        "meta_object_id": "1997-051BN",
        "meta_epoch": "2025-12-16T05:10:47.996256",
        "meta_mean_motion": 14.55360619,
        "meta_eccentricity": 0.00182387,
        "meta_inclination": 86.3848,
        "meta_ra_of_asc_node": 52.2709,
        "meta_arg_of_pericenter": 92.3445,
        "meta_mean_anomaly": 326.7114,
        "meta_ephemeris_type": 0,
        "meta_classification_type": "U",
        "meta_norad_cat_id": 33953,
        "meta_element_set_no": 999,
        "meta_rev_at_epoch": 88354,
        "meta_bstar": 0.00077913405,
        "meta_mean_motion_dot": 3.408e-05,
        "meta_mean_motion_ddot": 0,
        "tle_line1": "1 33953U 97051BN  25350.21583329  .00003408  00000+0  77913-3 0  9997",
        "tle_line2": "2 33953  86.3848  52.2709 0018238  92.3445 326.7114 14.55360619883548"
      },
      "geometry": {
        "type": "Point",
        "coordinates": [
          57.67655865238291,
          58.58957700792959
        ]
      }
    },
    {
      "type": "Feature",
      "properties": {
        "norad_id": 33960,
        "name": "IRIDIUM 33 DEB",
        "group": "iridium-33-debris",
        "lat": 10.885638054153697,
        "lon": -71.98663075859211,
        "alt_km": 609.9823470745278,
        "timestamp": "2025-12-17T10:52:54.737104+00:00",
        "meta_object_name": "IRIDIUM 33 DEB",
        "meta_object_id": "1997-051BV",
        "meta_epoch": "2025-12-16T20:31:22.067328",
        "meta_mean_motion": 14.85403921,
        "meta_eccentricity": 0.00074534,
        "meta_inclination": 86.2536,
        "meta_ra_of_asc_node": 287.5735,
        "meta_arg_of_pericenter": 55.4935,
        "meta_mean_anomaly": 358.3261,
        "meta_ephemeris_type": 0,
        "meta_classification_type": "U",
        "meta_norad_cat_id": 33960,
        "meta_element_set_no": 999,
        "meta_rev_at_epoch": 88928,
        "meta_bstar": 0.0023777253,
        "meta_mean_motion_dot": 0.00020546,
        "meta_mean_motion_ddot": 0,
        "tle_line1": "1 33960U 97051BV  25350.85511652  .00020546  00000+0  23777-2 0  9995",
        "tle_line2": "2 33960  86.2536 287.5735 0007453  55.4935 358.3261 14.85403921889280"
      },
      "geometry": {
        "type": "Point",
        "coordinates": [
          -71.98663075859211,
          10.885638054153697
        ]
      }
    },
    {
      "type": "Feature",
      "properties": {
        "norad_id": 33966,
        "name": "IRIDIUM 33 DEB",
        "group": "iridium-33-debris",
        "lat": 85.61302998244031,
        "lon": 99.32214949392561,
        "alt_km": 718.9730379435032,
        "timestamp": "2025-12-17T10:52:54.737114+00:00",
        "meta_object_name": "IRIDIUM 33 DEB",
        "meta_object_id": "1997-051CB",
        "meta_epoch": "2025-12-16T16:50:38.690880",
        "meta_mean_motion": 14.49610629,
        "meta_eccentricity": 0.00079012,
        "meta_inclination": 86.3926,
        "meta_ra_of_asc_node": 44.3273,
        "meta_arg_of_pericenter": 175.1999,
        "meta_mean_anomaly": 312.7455,
        "meta_ephemeris_type": 0,
        "meta_classification_type": "U",
        "meta_norad_cat_id": 33966,
        "meta_element_set_no": 999,
        "meta_rev_at_epoch": 88499,
        "meta_bstar": 0.00040274972,
        "meta_mean_motion_dot": 1.567e-05,
        "meta_mean_motion_ddot": 0,
        "tle_line1": "1 33966U 97051CB  25350.70183670  .00001567  00000+0  40275-3 0  9995",
        "tle_line2": "2 33966  86.3926  44.3273 0007901 175.1999 312.7455 14.49610629884991"
      },
      "geometry": {
        "type": "Point",
        "coordinates": [
          99.32214949392561,
          85.61302998244031
        ]
      }
    },
    {
      "type": "Feature",
      "properties": {
        "norad_id": 34071,
        "name": "IRIDIUM 33 DEB",
        "group": "iridium-33-debris",
        "lat": 27.924915875570896,
        "lon": -166.16123224655743,
        "alt_km": 722.3792574316112,
        "timestamp": "2025-12-17T10:52:54.737125+00:00",
        "meta_object_name": "IRIDIUM 33 DEB",
        "meta_object_id": "1997-051CE",
        "meta_epoch": "2025-12-16T14:18:08.558496",
        "meta_mean_motion": 14.49482686,
        "meta_eccentricity": 0.00100001,
        "meta_inclination": 86.3455,
        "meta_ra_of_asc_node": 16.1526,
        "meta_arg_of_pericenter": 97.4247,
        "meta_mean_anomaly": 262.8094,
        "meta_ephemeris_type": 0,
        "meta_classification_type": "U",
        "meta_norad_cat_id": 34071,
        "meta_element_set_no": 999,
        "meta_rev_at_epoch": 88390,
        "meta_bstar": 0.00047158898,
        "meta_mean_motion_dot": 1.827e-05,
        "meta_mean_motion_ddot": 0,
        "tle_line1": "1 34071U 97051CE  25350.59593239  .00001827  00000+0  47159-3 0  9993",
        "tle_line2": "2 34071  86.3455  16.1526 0010000  97.4247 262.8094 14.49482686883904"
      },
      "geometry": {
        "type": "Point",
        "coordinates": [
          -166.16123224655743,
          27.924915875570896
        ]
      }
    },
    {
      "type": "Feature",
      "properties": {
        "norad_id": 34077,
        "name": "IRIDIUM 33 DEB",
        "group": "iridium-33-debris",
        "lat": -74.49561622109968,
        "lon": -117.39893135942563,
        "alt_km": 689.261194439272,
        "timestamp": "2025-12-17T10:52:54.737135+00:00",
        "meta_object_name": "IRIDIUM 33 DEB",
        "meta_object_id": "1997-051CL",
        "meta_epoch": "2025-12-16T16:15:17.100000",
        "meta_mean_motion": 14.64880875,
        "meta_eccentricity": 0.00097738,
        "meta_inclination": 86.3859,
        "meta_ra_of_asc_node": 49.7731,
        "meta_arg_of_pericenter": 27.321,
        "meta_mean_anomaly": 97.3185,
        "meta_ephemeris_type": 0,
        "meta_classification_type": "U",
        "meta_norad_cat_id": 34077,
        "meta_element_set_no": 999,
        "meta_rev_at_epoch": 88390,
        "meta_bstar": 0.00072857342,
        "meta_mean_motion_dot": 3.916e-05,
        "meta_mean_motion_ddot": 0,
        "tle_line1": "1 34077U 97051CL  25350.67728125  .00003916  00000+0  72857-3 0  9996",
        "tle_line2": "2 34077  86.3859  49.7731 0009773  27.3210  97.3185 14.64880875883906"
      },
      "geometry": {
        "type": "Point",
        "coordinates": [
          -117.39893135942563,
          -74.49561622109968
        ]
      }
    }
  ]
}